{
  "type": "FeatureCollection",
  "features": [
    {
      "type": "Feature",
      "properties": {
        "norad_id": 66548,
        "name": "CZ-2C R/B",
        "group": "last-30-days",
        "lat": 10.016225077198522,
        "lon": 5.0475218810100415,
        "alt_km": 520.3456060686631,
        "timestamp": "2025-12-07T07:31:35.086291+00:00",
        "meta_object_name": "CZ-2C R/B",
        "meta_object_id": "2025-266D",
        "meta_epoch": "2025-12-06T22:03:51.685344",
        "meta_mean_motion": 15.29995565,
        "meta_eccentricity": 0.00843187,
        "meta_inclination": 52.0564,
        "meta_ra_of_asc_node": 359.005,
        "meta_arg_of_pericenter": 153.2198,
        "meta_mean_anomaly": 207.3179,
        "meta_ephemeris_type": 0,
        "meta_classification_type": "U",
        "meta_norad_cat_id": 66548,
        "meta_element_set_no": 999,
        "meta_rev_at_epoch": 272,
        "meta_bstar": 0.00053172829,
        "meta_mean_motion_dot": 0.00017101,
        "meta_mean_motion_ddot": 0,
        "tle_line1": "1 66548U 25266D   25340.91934821  .00017101  00000+0  53173-3 0  9992",
        "tle_line2": "2 66548  52.0564 359.0050 0084318 153.2198 207.3179 15.29995565  2724"
      },
      "geometry": {
        "type": "Point",
        "coordinates": [
          5.0475218810100415,
          10.016225077198522
        ]
      }
    },
    {
      "type": "Feature",
      "properties": {
        "norad_id": 66549,
        "name": "SHIJIAN-28",
        "group": "last-30-days",
        "lat": 0.41092069206326787,
        "lon": -85.65565799044377,
        "alt_km": 35667.845568027384,
        "timestamp": "2025-12-07T07:31:35.086305+00:00",
        "meta_object_name": "SHIJIAN-28",
        "meta_object_id": "2025-277A",
        "meta_epoch": "2025-11-30T18:06:43.124256",
        "meta_mean_motion": 2.28019775,
        "meta_eccentricity": 0.7300519,
        "meta_inclination": 14.4344,
        "meta_ra_of_asc_node": 275.4056,
        "meta_arg_of_pericenter": 179.5026,
        "meta_mean_anomaly": 182.358,
        "meta_ephemeris_type": 0,
        "meta_classification_type": "U",
        "meta_norad_cat_id": 66549,
        "meta_element_set_no": 999,
        "meta_rev_at_epoch": 4,
        "meta_bstar": 0.00062085,
        "meta_mean_motion_dot": 6.315e-05,
        "meta_mean_motion_ddot": 0,
        "tle_line1": "1 66549U 25277A   25334.75466579  .00006315  00000+0  62085-3 0  9997",
        "tle_line2": "2 66549  14.4344 275.4056 7300519 179.5026 182.3580  2.28019775    48"
      },
      "geometry": {
        "type": "Point",
        "coordinates": [
          -85.65565799044377,
          0.41092069206326787
        ]
      }
    },
    {
      "type": "Feature",
      "properties": {
        "norad_id": 66550,
        "name": "CZ-7A R/B",
        "group": "last-30-days",
        "lat": 2.2333969962919125,
        "lon": -78.69998650473583,
        "alt_km": 32396.168945645233,
        "timestamp": "2025-12-07T07:31:35.086319+00:00",
        "meta_object_name": "CZ-7A R/B",
        "meta_object_id": "2025-277B",
        "meta_epoch": "2025-12-06T11:25:58.783584",
        "meta_mean_motion": 2.49148263,
        "meta_eccentricity": 0.7169465,
        "meta_inclination": 14.4071,
        "meta_ra_of_asc_node": 272.9582,
        "meta_arg_of_pericenter": 183.2116,
        "meta_mean_anomaly": 166.6906,
        "meta_ephemeris_type": 0,
        "meta_classification_type": "U",
        "meta_norad_cat_id": 66550,
        "meta_element_set_no": 999,
        "meta_rev_at_epoch": 18,
        "meta_bstar": 0.0029638743,
        "meta_mean_motion_dot": 0.01473319,
        "meta_mean_motion_ddot": 1.649722e-06,
        "tle_line1": "1 66550U 25277B   25340.47637481  .01473319  16497-5  29639-2 0  9990",
        "tle_line2": "2 66550  14.4071 272.9582 7169465 183.2116 166.6906  2.49148263   188"
      },
      "geometry": {
        "type": "Point",
        "coordinates": [
          -78.69998650473583,
          2.2333969962919125
        ]
      }
    },
    {
      "type": "Feature",
      "properties": {
        "norad_id": 66551,
        "name": "UNKNOWN",
        "group": "last-30-days",
        "lat": -40.21822239342527,
        "lon": 72.93611567272778,
        "alt_km": 347.44136770914156,
        "timestamp": "2025-12-07T07:31:35.086330+00:00",
        "meta_object_name": "UNKNOWN",
        "meta_object_id": "2025-271AE",
        "meta_epoch": "2025-12-02T16:00:03.000096",
        "meta_mean_motion": 15.87051116,
        "meta_eccentricity": 7.17e-05,
        "meta_inclination": 53.1571,
        "meta_ra_of_asc_node": 236.7807,
        "meta_arg_of_pericenter": 110.7411,
        "meta_mean_anomaly": 313.9012,
        "meta_ephemeris_type": 0,
        "meta_classification_type": "U",
        "meta_norad_cat_id": 66551,
        "meta_element_set_no": 999,
        "meta_rev_at_epoch": 262,
        "meta_bstar": -0.0074303,
        "meta_mean_motion_dot": -0.01709685,
        "meta_mean_motion_ddot": 0,
        "tle_line1": "1 66551U 25271AE  25336.66670139 -.01709685  00000+0 -74303-2 0  9993",
        "tle_line2": "2 66551  53.1571 236.7807 0000717 110.7411 313.9012 15.87051116  2624"
      },
      "geometry": {
        "type": "Point",
        "coordinates": [
          72.93611567272778,
          -40.21822239342527
        ]
      }
    },
    {
      "type": "Feature",
      "properties": {
        "norad_id": 66554,
        "name": "GLOBAL-33",
        "group": "last-30-days",
        "lat": -9.547212248153983,
        "lon": 77.54777157730366,
        "alt_km": 469.23175723861186,
        "timestamp": "2025-12-07T07:31:35.086340+00:00",
        "meta_object_name": "GLOBAL-33",
        "meta_object_id": "2025-267A",
        "meta_epoch": "2025-12-06T15:56:11.872320",
        "meta_mean_motion": 15.31428184,
        "meta_eccentricity": 0.00050435,
        "meta_inclination": 42.0198,
        "meta_ra_of_asc_node": 92.0641,
        "meta_arg_of_pericenter": 9.1324,
        "meta_mean_anomaly": 350.9604,
        "meta_ephemeris_type": 0,
        "meta_classification_type": "U",
        "meta_norad_cat_id": 66554,
        "meta_element_set_no": 999,
        "meta_rev_at_epoch": 247,
        "meta_bstar": 0.00069840721,
        "meta_mean_motion_dot": 0.00021474,
        "meta_mean_motion_ddot": 0,
        "tle_line1": "1 66554U 25267A   25340.66402630  .00021474  00000+0  69841-3 0  9997",
        "tle_line2": "2 66554  42.0198  92.0641 0005043   9.1324 350.9604 15.31428184  2472"
      },
      "geometry": {
        "type": "Point",
        "coordinates": [
          77.54777157730366,
          -9.547212248153983
        ]
      }
    },
    {
      "type": "Feature",
      "properties": {
        "norad_id": 66555,
        "name": "ELECTRON KICK STAGE R/B",
        "group": "last-30-days",
        "lat": 19.67895785784985,
        "lon": 111.61041909709874,
        "alt_km": 460.78792082136533,
        "timestamp": "2025-12-07T07:31:35.086351+00:00",
        "meta_object_name": "ELECTRON KICK STAGE R/B",
        "meta_object_id": "2025-267B",
        "meta_epoch": "2025-12-06T14:11:19.744800",
        "meta_mean_motion": 15.32375133,
        "meta_eccentricity": 0.00070081,
        "meta_inclination": 42.0184,
        "meta_ra_of_asc_node": 92.3831,
        "meta_arg_of_pericenter": 7.6662,
        "meta_mean_anomaly": 352.4282,
        "meta_ephemeris_type": 0,
        "meta_classification_type": "U",
        "meta_norad_cat_id": 66555,
        "meta_element_set_no": 999,
        "meta_rev_at_epoch": 246,
        "meta_bstar": 0.0011819859,
        "meta_mean_motion_dot": 0.00037718,
        "meta_mean_motion_ddot": 0,
        "tle_line1": "1 66555U 25267B   25340.59120075  .00037718  00000+0  11820-2 0  9991",
        "tle_line2": "2 66555  42.0184  92.3831 0007008   7.6662 352.4282 15.32375133  2467"
      },
      "geometry": {
        "type": "Point",
        "coordinates": [
          111.61041909709874,
          19.67895785784985
        ]
      }
    },
    {
      "type": "Feature",
      "properties": {
        "norad_id": 66557,
        "name": "STARLINK-35699",
        "group": "last-30-days",
        "lat": -10.296163918602845,
        "lon": 141.75968917367425,
        "alt_km": 391.1641702532952,
        "timestamp": "2025-12-07T07:31:35.086362+00:00",
        "meta_object_name": "STARLINK-35699",
        "meta_object_id": "2025-268A",
        "meta_epoch": "2025-12-06T22:00:01.999584",
        "meta_mean_motion": 15.60632446,
        "meta_eccentricity": 0.0001581,
        "meta_inclination": 42.9998,
        "meta_ra_of_asc_node": 155.3559,
        "meta_arg_of_pericenter": 272.3136,
        "meta_mean_anomaly": 1.1269,
        "meta_ephemeris_type": 0,
        "meta_classification_type": "U",
        "meta_norad_cat_id": 66557,
        "meta_element_set_no": 999,
        "meta_rev_at_epoch": 373,
        "meta_bstar": -0.025909306,
        "meta_mean_motion_dot": -0.01944004,
        "meta_mean_motion_ddot": 0,
        "tle_line1": "1 66557U 25268A   25340.91668981 -.01944004  00000+0 -25909-1 0  9993",
        "tle_line2": "2 66557  42.9998 155.3559 0001581 272.3136   1.1269 15.60632446  3733"
      },
      "geometry": {
        "type": "Point",
        "coordinates": [
          141.75968917367425,
          -10.296163918602845
        ]
      }
    }
  ]
}